#aV2013  2 11  0  0  0.00000000     288 DD+AD WGS84 FIT  NGA
## 1727  86400.00000000   300.00000000 56334 0.0000000000000
+   31     1  2  3  4  5  6  7  8  9 10 11 12 13 14 15 16 17
+         18 19 20 21 22 23 24 25 26 28 29 30 31 32  0  0  0
+          0  0  0  0  0  0  0  0  0  0  0  0  0  0  0  0  0
+          0  0  0  0  0  0  0  0  0  0  0  0  0  0  0  0  0
+          0  0  0  0  0  0  0  0  0  0  0  0  0  0  0  0  0
++         2  2  2  2  2  2  2  2  2  2  2  2  2  2  2  2  2
++         2  2  2  2  2  2  2  2  2  2  2  2  2  2  2  0  0
++         0  0  0  0  0  0  0  0  0  0  0  0  0  0  0  0  0
++         0  0  0  0  0  0  0  0  0  0  0  0  0  0  0  0  0
++         0  0  0  0  0  0  0  0  0  0  0  0  0  0  0  0  0
%c cc cc ccc ccc cccc cccc cccc cccc ccccc ccccc ccccc ccccc
%c cc cc ccc ccc cccc cccc cccc cccc ccccc ccccc ccccc ccccc
%f  0.0000000  0.000000000  0.00000000000  0.000000000000000
%f  0.0000000  0.000000000  0.00000000000  0.000000000000000
%i    0    0    0    0      0      0      0      0         0
%i    0    0    0    0      0      0      0      0         0
/*      NGA, ST. LOUIS,MO.                                  
/*   EPHEMERIS COMPUTED FROM  1 DAYS OF DATA
/*   EPOCHA SMOOTHER  
/* CCCCCCCCCCCCCCCCCCCCCCCCCCCCCCCCCCCCCCCCCCCCCCCCCCCCCCCCC
*  2013  2 11 15 20  0.00000000                                                 
P  1  -5206.250605  17786.130713 -19021.989936     -0.226975                    
V  1 -22000.611682  10017.500531  15472.972390      0.026783                    
P  2  22103.967699 -14062.182908   2207.759194    418.120515                    
V  2   4214.077540   2161.708710 -31433.836091      0.015891                    
P  3  -9934.032896  18294.042197  15860.621189    167.084222                    
V  3  -4858.303099 -20858.497704  20602.526389      0.050939                    
P  4  24266.290444  -4047.010511 -10653.513592    131.591785                    
V  4 -10231.991059   8588.930493 -27002.153286      0.111423                    
P  5  13462.499232  -9266.781162  20926.480064   -383.236696                    
V  5  22213.831682  14767.286010  -7600.609148     -0.018226                    
P  6 -13776.505331  12008.769610  19250.800871    354.653984                    
V  6  -2258.835081 -24379.679918  14001.683675     -0.143874                    
P  7  10981.342731  10885.269918  21672.535916    179.467462                    
V  7 -24276.906775  12559.791213   5726.570288      0.043750                    
P  8  20426.923217   3684.402107  17012.961933      4.569538                    
V  8 -19362.728375   8401.732845  20992.288206      0.002611                    
P  9  20079.579363 -16110.529460  -7153.689875    219.964246                    
V  9   8205.946711  -2317.437197  30535.522820      0.025622                    
P 10  23595.852675   6172.379037  10713.971785    -69.521629                    
V 10  10182.355600   9865.967861 -26958.496158     -0.013882                    
P 11  -8267.096095  22104.451022 -12345.116737   -352.502534                    
V 11 -13855.816962   7765.192377  24310.876395     -0.036621                    
P 12  -3706.316007 -17984.166446 -19286.377301    117.308333                    
V 12  20708.760412  12786.718552 -15721.461736      0.020760                    
P 13   4690.319026  23236.469988  11719.912947    145.559011                    
V 13  -3957.261295  14705.610152 -27358.280531     -0.029165                    
P 14 -13928.935376  -6504.392402 -21483.531001    220.401811                    
V 14   3384.420466 -27468.425962   5931.849606      0.002785                    
P 15   4710.429898 -25280.204672   6066.140509   -108.034180                    
V 15   3398.347910   7849.867255  30209.865558     -0.012361                    
P 16 -14541.286841   7020.674560  21146.703063   -252.325477                    
V 16 -21649.186999 -15689.617668  -9351.931756     -0.001620                    
P 17  14636.301373   4335.717783 -21544.487490     50.712443                    
V 17  -2376.469654  27720.257971   3690.233619     -0.038827                    
P 18 -20600.449235 -16662.656156   4073.482356    238.884550                    
V 18   5801.912230   -414.336126  30210.582651      0.018961                    
P 19  -8817.997692  23407.757000   8208.183835   -347.736007                    
V 19  -1518.594612 -10934.954575  29672.890000     -0.032175                    
P 20   5438.109459  18716.801148 -18255.030916     83.701421                    
V 20 -20914.627457  -9536.967892 -16090.543435      0.015821                    
P 21 -15466.119059  -8939.148728  20340.681172   -280.030688                    
V 21  21359.612355 -12271.129344  10597.232548     -0.022169                    
P 22 -24002.275488  -8723.354844  -7360.164689    158.141152                    
V 22  -6154.440052  -8212.605531  28939.885603      0.011245                    
P 23    365.354192  26241.348831   2431.999033    114.927799                    
V 23  -3403.622400   2881.138506 -31720.512175     -0.036939                    
P 24   8923.591289 -18331.713071 -17008.181687     -0.896337                    
V 24  19883.891451  -8648.386236  19786.902980     -0.006235                    
P 25 -14938.894420 -18657.873457 -11711.349127     69.499113                    
V 25  13622.639177   6047.904806 -27009.586451      0.029347                    
P 26  12439.021530 -17221.495716  15077.872976   -105.092178                    
V 26   -649.451715  20486.956597  23322.771824      0.140309                    
P 28  22843.453958  13003.591078  -3871.744694    231.737049                    
V 28   3404.925246   4902.606992  31591.861226      0.035025                    
P 29  -6024.692115 -23193.773252  11554.563340    406.883390                    
V 29   3467.960400 -14319.554478 -27024.656463      0.037570                    
P 30 -21981.094982    384.988767  14536.754829   -228.146220                    
V 30 -16121.076112 -10430.383244 -23556.083098      0.100294                    
P 31 -24746.233675   7424.337667  -6574.798250    301.971214                    
V 31   6772.709874  -5485.833900 -30561.789002      0.017504                    
P 32  -3311.014427  16152.287963 -20769.053969   -534.563456                    
V 32 -21610.590930 -15605.088267  -8121.082159     -0.033794                    
EOF
